[{"OBJECT_NAME":"STARLINK-5675","OBJECT_ID":"2023-013K","EPOCH":"2026-03-09T01:20:01.413888","MEAN_MOTION":15.02533778,"ECCENTRICITY":0.00012902,"INCLINATION":43.0048,"RA_OF_ASC_NODE":303.8156,"ARG_OF_PERICENTER":259.4666,"MEAN_ANOMALY":100.6031,"EPHEMERIS_TYPE":0,"CLASSIFICATION_TYPE":"U","NORAD_CAT_ID":55340,"ELEMENT_SET_NO":999,"REV_AT_EPOCH":17161,"BSTAR":4.021526e-6,"MEAN_MOTION_DOT":-1.49e-6,"MEAN_MOTION_DDOT":0},{"OBJECT_NAME":"FENGYUN 1C DEB","OBJECT_ID":"1999-025UA","EPOCH":"2026-03-09T18:54:40.789440","MEAN_MOTION":14.60797271,"ECCENTRICITY":0.02036625,"INCLINATION":98.3228,"RA_OF_ASC_NODE":143.6795,"ARG_OF_PERICENTER":316.7608,"MEAN_ANOMALY":169.6597,"EPHEMERIS_TYPE":0,"CLASSIFICATION_TYPE":"U","NORAD_CAT_ID":30169,"ELEMENT_SET_NO":999,"REV_AT_EPOCH":98993,"BSTAR":0.0016852515,"MEAN_MOTION_DOT":0.00011,"MEAN_MOTION_DDOT":0}]
